{
  "type": "FeatureCollection",
  "features": [
    {
      "type": "Feature",
      "properties": {
        "norad_id": 36828,
        "name": "BEIDOU-2 IGSO-1 (C06)",
        "group": "beidou",
        "lat": -37.76574585590633,
        "lon": 130.7727499593024,
        "alt_km": 35807.448822667415,
        "timestamp": "2025-12-04T19:33:59.869251+00:00",
        "meta_object_name": "BEIDOU-2 IGSO-1 (C06)",
        "meta_object_id": "2010-036A",
        "meta_epoch": "2025-12-03T10:50:44.943648",
        "meta_mean_motion": 1.00278626,
        "meta_eccentricity": 0.00512649,
        "meta_inclination": 54.2837,
        "meta_ra_of_asc_node": 164.7326,
        "meta_arg_of_pericenter": 215.7728,
        "meta_mean_anomaly": 322.4753,
        "meta_ephemeris_type": 0,
        "meta_classification_type": "U",
        "meta_norad_cat_id": 36828,
        "meta_element_set_no": 999,
        "meta_rev_at_epoch": 5613,
        "meta_bstar": 0,
        "meta_mean_motion_dot": -2.4e-07,
        "meta_mean_motion_ddot": 0,
        "tle_line1": "1 36828U 10036A   25337.45190907 -.00000024  00000+0  00000+0 0  9997",
        "tle_line2": "2 36828  54.2837 164.7326 0051264 215.7728 322.4753  1.00278626 56130"
      },
      "geometry": {
        "type": "Point",
        "coordinates": [
          130.7727499593024,
          -37.76574585590633
        ]
      }
    },
    {
      "type": "Feature",
      "properties": {
        "norad_id": 37210,
        "name": "BEIDOU-2 G4 (C04)",
        "group": "beidou",
        "lat": 3.1301783331594284,
        "lon": 167.32398117200273,
        "alt_km": 35786.82106806367,
        "timestamp": "2025-12-04T19:33:59.869272+00:00",
        "meta_object_name": "BEIDOU-2 G4 (C04)",
        "meta_object_id": "2010-057A",
        "meta_epoch": "2025-12-04T05:55:37.533216",
        "meta_mean_motion": 1.00271298,
        "meta_eccentricity": 0.00109363,
        "meta_inclination": 3.1621,
        "meta_ra_of_asc_node": 69.9588,
        "meta_arg_of_pericenter": 188.7123,
        "meta_mean_anomaly": 63.6293,
        "meta_ephemeris_type": 0,
        "meta_classification_type": "U",
        "meta_norad_cat_id": 37210,
        "meta_element_set_no": 999,
        "meta_rev_at_epoch": 5533,
        "meta_bstar": 0,
        "meta_mean_motion_dot": -9.7e-07,
        "meta_mean_motion_ddot": 0,
        "tle_line1": "1 37210U 10057A   25338.24696219 -.00000097  00000+0  00000+0 0  9991",
        "tle_line2": "2 37210   3.1621  69.9588 0010936 188.7123  63.6293  1.00271298 55337"
      },
      "geometry": {
        "type": "Point",
        "coordinates": [
          167.32398117200273,
          3.1301783331594284
        ]
      }
    },
    {
      "type": "Feature",
      "properties": {
        "norad_id": 37256,
        "name": "BEIDOU-2 IGSO-2 (C07)",
        "group": "beidou",
        "lat": -14.901533457457944,
        "lon": 108.0981199212814,
        "alt_km": 35584.664754644466,
        "timestamp": "2025-12-04T19:33:59.869285+00:00",
        "meta_object_name": "BEIDOU-2 IGSO-2 (C07)",
        "meta_object_id": "2010-068A",
        "meta_epoch": "2025-12-03T17:22:36.030432",
        "meta_mean_motion": 1.0028871,
        "meta_eccentricity": 0.00492335,
        "meta_inclination": 47.9043,
        "meta_ra_of_asc_node": 274.2613,
        "meta_arg_of_pericenter": 216.1442,
        "meta_mean_anomaly": 310.2369,
        "meta_ephemeris_type": 0,
        "meta_classification_type": "U",
        "meta_norad_cat_id": 37256,
        "meta_element_set_no": 999,
        "meta_rev_at_epoch": 5483,
        "meta_bstar": 0,
        "meta_mean_motion_dot": -2.25e-06,
        "meta_mean_motion_ddot": 0,
        "tle_line1": "1 37256U 10068A   25337.72402813 -.00000225  00000+0  00000+0 0  9993",
        "tle_line2": "2 37256  47.9043 274.2613 0049233 216.1442 310.2369  1.00288710 54839"
      },
      "geometry": {
        "type": "Point",
        "coordinates": [
          108.0981199212814,
          -14.901533457457944
        ]
      }
    },
    {
      "type": "Feature",
      "properties": {
        "norad_id": 37384,
        "name": "BEIDOU-2 IGSO-3 (C08)",
        "group": "beidou",
        "lat": 57.56621497533938,
        "lon": 98.22812095696457,
        "alt_km": 35840.879982480656,
        "timestamp": "2025-12-04T19:33:59.869296+00:00",
        "meta_object_name": "BEIDOU-2 IGSO-3 (C08)",
        "meta_object_id": "2011-013A",
        "meta_epoch": "2025-12-03T14:52:09.520896",
        "meta_mean_motion": 1.00272128,
        "meta_eccentricity": 0.00353922,
        "meta_inclination": 62.1308,
        "meta_ra_of_asc_node": 42.005,
        "meta_arg_of_pericenter": 186.5359,
        "meta_mean_anomaly": 174.9093,
        "meta_ephemeris_type": 0,
        "meta_classification_type": "U",
        "meta_norad_cat_id": 37384,
        "meta_element_set_no": 999,
        "meta_rev_at_epoch": 5370,
        "meta_bstar": 0,
        "meta_mean_motion_dot": -1.99e-06,
        "meta_mean_motion_ddot": 0,
        "tle_line1": "1 37384U 11013A   25337.61955464 -.00000199  00000+0  00000+0 0  9999",
        "tle_line2": "2 37384  62.1308  42.0050 0035392 186.5359 174.9093  1.00272128 53708"
      },
      "geometry": {
        "type": "Point",
        "coordinates": [
          98.22812095696457,
          57.56621497533938
        ]
      }
    },
    {
      "type": "Feature",
      "properties": {
        "norad_id": 37763,
        "name": "BEIDOU-2 IGSO-4 (C09)",
        "group": "beidou",
        "lat": -47.25948395598325,
        "lon": 116.93546355085526,
        "alt_km": 35518.26867590989,
        "timestamp": "2025-12-04T19:33:59.869307+00:00",
        "meta_object_name": "BEIDOU-2 IGSO-4 (C09)",
        "meta_object_id": "2011-038A",
        "meta_epoch": "2025-12-01T12:32:09.960864",
        "meta_mean_motion": 1.00284074,
        "meta_eccentricity": 0.01487808,
        "meta_inclination": 54.5808,
        "meta_ra_of_asc_node": 167.4476,
        "meta_arg_of_pericenter": 230.2031,
        "meta_mean_anomaly": 315.0387,
        "meta_ephemeris_type": 0,
        "meta_classification_type": "U",
        "meta_norad_cat_id": 37763,
        "meta_element_set_no": 999,
        "meta_rev_at_epoch": 5266,
        "meta_bstar": 0,
        "meta_mean_motion_dot": 1.01e-06,
        "meta_mean_motion_ddot": 0,
        "tle_line1": "1 37763U 11038A   25335.52233751  .00000101  00000+0  00000+0 0  9995",
        "tle_line2": "2 37763  54.5808 167.4476 0148780 230.2031 315.0387  1.00284074 52664"
      },
      "geometry": {
        "type": "Point",
        "coordinates": [
          116.93546355085526,
          -47.25948395598325
        ]
      }
    },
    {
      "type": "Feature",
      "properties": {
        "norad_id": 37948,
        "name": "BEIDOU-2 IGSO-5 (C10)",
        "group": "beidou",
        "lat": -3.864274107459554,
        "lon": 97.39333107577215,
        "alt_km": 35407.845126958164,
        "timestamp": "2025-12-04T19:33:59.869318+00:00",
        "meta_object_name": "BEIDOU-2 IGSO-5 (C10)",
        "meta_object_id": "2011-073A",
        "meta_epoch": "2025-12-03T19:19:36.726816",
        "meta_mean_motion": 1.00292258,
        "meta_eccentricity": 0.01106709,
        "meta_inclination": 48.0381,
        "meta_ra_of_asc_node": 273.9687,
        "meta_arg_of_pericenter": 222.1681,
        "meta_mean_anomaly": 319.0723,
        "meta_ephemeris_type": 0,
        "meta_classification_type": "U",
        "meta_norad_cat_id": 37948,
        "meta_element_set_no": 999,
        "meta_rev_at_epoch": 5117,
        "meta_bstar": 0,
        "meta_mean_motion_dot": -1.77e-06,
        "meta_mean_motion_ddot": 0,
        "tle_line1": "1 37948U 11073A   25337.80528619 -.00000177  00000+0  00000+0 0  9996",
        "tle_line2": "2 37948  48.0381 273.9687 0110670 222.1681 319.0723  1.00292258 51174"
      },
      "geometry": {
        "type": "Point",
        "coordinates": [
          97.39333107577215,
          -3.864274107459554
        ]
      }
    },
    {
      "type": "Feature",
      "properties": {
        "norad_id": 38091,
        "name": "BEIDOU-2 G5 (C05)",
        "group": "beidou",
        "lat": -0.2181327457108225,
        "lon": 66.18875213753803,
        "alt_km": 35819.42318020421,
        "timestamp": "2025-12-04T19:33:59.869329+00:00",
        "meta_object_name": "BEIDOU-2 G5 (C05)",
        "meta_object_id": "2012-008A",
        "meta_epoch": "2025-12-04T05:26:40.307424",
        "meta_mean_motion": 1.00272536,
        "meta_eccentricity": 0.00123747,
        "meta_inclination": 3.0866,
        "meta_ra_of_asc_node": 70.7329,
        "meta_arg_of_pericenter": 225.6455,
        "meta_mean_anomaly": 277.2985,
        "meta_ephemeris_type": 0,
        "meta_classification_type": "U",
        "meta_norad_cat_id": 38091,
        "meta_element_set_no": 999,
        "meta_rev_at_epoch": 5041,
        "meta_bstar": 0,
        "meta_mean_motion_dot": 7.1e-07,
        "meta_mean_motion_ddot": 0,
        "tle_line1": "1 38091U 12008A   25338.22685541  .00000071  00000+0  00000+0 0  9992",
        "tle_line2": "2 38091   3.0866  70.7329 0012374 225.6455 277.2985  1.00272536 50416"
      },
      "geometry": {
        "type": "Point",
        "coordinates": [
          66.18875213753803,
          -0.2181327457108225
        ]
      }
    }
  ]
}